STARLINK-31428          
1 59367U 24060V   26068.81180564  .00000066  00000+0  11932-4 0  9998
2 59367  43.0035 258.9818 0002140 272.9507  87.1100 15.27576066110089
NUSAT-50 (NANCY ROMAN)  
1 60493U 24149AB  26068.80227738  .00012094  00000+0  42252-3 0  9994
2 60493  97.3817 150.7693 0002523 238.0469 122.0527 15.29713355 86930
