[{"OBJECT_NAME":"STARLINK-31428","OBJECT_ID":"2024-060V","EPOCH":"2026-03-09T19:29:00.007296","MEAN_MOTION":15.27576066,"ECCENTRICITY":0.000214,"INCLINATION":43.0035,"RA_OF_ASC_NODE":258.9818,"ARG_OF_PERICENTER":272.9507,"MEAN_ANOMALY":87.11,"EPHEMERIS_TYPE":0,"CLASSIFICATION_TYPE":"U","NORAD_CAT_ID":59367,"ELEMENT_SET_NO":999,"REV_AT_EPOCH":11008,"BSTAR":1.193203e-5,"MEAN_MOTION_DOT":6.6e-7,"MEAN_MOTION_DDOT":0},{"OBJECT_NAME":"NUSAT-50 (NANCY ROMAN)","OBJECT_ID":"2024-149AB","EPOCH":"2026-03-09T19:15:16.765632","MEAN_MOTION":15.29713355,"ECCENTRICITY":0.00025229,"INCLINATION":97.3817,"RA_OF_ASC_NODE":150.7693,"ARG_OF_PERICENTER":238.0469,"MEAN_ANOMALY":122.0527,"EPHEMERIS_TYPE":0,"CLASSIFICATION_TYPE":"U","NORAD_CAT_ID":60493,"ELEMENT_SET_NO":999,"REV_AT_EPOCH":8693,"BSTAR":0.0004225155,"MEAN_MOTION_DOT":0.00012094,"MEAN_MOTION_DDOT":0}]
